GLOBALSTAR M035         
1 25851U 99037A   24185.87353275 -.00000027  00000+0  13965-2 0  9994
2 25851  51.9945 111.7308 0013094 135.8522 251.4802 11.04530975 57773
GLOBALSTAR M030         
1 25854U 99037D   24185.86734079 -.00000039  00000+0  76928-3 0  9993
2 25854  51.9903 349.4204 0004358 137.5050 222.6105 11.55096621109790
GLOBALSTAR M048         
1 25872U 99041A   24185.97024748 -.00000073  00000+0 -75328-4 0  9998
2 25872  51.9378  82.4864 0013385 305.0105  67.8259 11.33847042 85480
GLOBALSTAR M026         
1 25873U 99041B   24185.84683869 -.00000090  00000+0 -97063-3 0  9998
2 25873  51.9980 233.4175 0001083  24.8649 146.2626 11.06834079109915
GLOBALSTAR M043         
1 25874U 99041C   24185.76496211 -.00000056  00000+0  35492-3 0  9992
2 25874  51.9362 176.7313 0012099  75.2348  96.1483 11.25680215 83634
GLOBALSTAR M028         
1 25875U 99041D   24185.92050315 -.00000088  00000+0  83115-4 0  9993
2 25875  51.9604 151.5153 0063734  35.0791 325.4243 12.50558809146606
